;name;latitude;longitude;y;x
0;7th Ward Fire Dep,20321 N La Highway 82, Abbeville, 7051, LA;30.75059;-95.954691;3417589.82201;-10664308.403049
1;Abbeville Fire Dep,210 W Vermilion St, Abbeville, 7051, LA;29.976488;-92.135975;3331556.899832;-10239900.125525
2;Alexandria Fire Dep,1000 Bolton Ave, Alexandria, 7130, LA;31.31129;-92.44514;3479905.45931;-10274260.41446
3;Alexandria Fire Prevention Bu,1000 Bolton Ave, Alexandria, 7130, LA;31.31129;-92.44514;3479905.45931;-10274260.41446
4;Amelia Volunteer Fire Dep,1200 David Dr, Morgan City, 7038, LA;29.69937;-91.20677;3300758.2824299997;-10136629.21103
5;Amite Fire Dep,210 NE Central Ave, Amite, 7042, LA;30.721144;-90.508752;3414317.223016;-10059052.188528
6;Ascension Fire District No ,325 E Caldwell St, Gonzales, 7073, LA;30.235802;-90.918808;3360376.798478;-10104625.402312
7;Avondale Volunteer Fire Dep,500 S Jamie Blvd, Westwego, 7009, LA;29.909896;-90.202972;3324155.931544;-10025068.105108
8;Bastrop Fire Chie,717 N Marable St, Bastrop, 7122, LA;32.777872;-91.919955;3642899.9162080004;-10215891.878745
9;Bastrop Fire Prevention Offic,211 E Jefferson Ave, Bastrop, 7122, LA;32.77728;-91.914417;3642834.12192;-10215276.390963
10;Bayou Black Fire Dep,2820 Savanne Rd, Houma, 7036, LA;29.634083;-90.765622;3293502.350537;-10087600.463458
11;Bayou Blue Volunteer Fire Dep,1870 Bayou Blue Rd, Houma, 7036, LA;29.580966;-90.608818;3287598.980274;-10070173.423702
12;Bayou Boeuf Volunteer Fire C,3457 Highway 307, Thibodaux, 7030, LA;29.79576;-90.82287;3311470.97064;-10093962.948929999
13;Bayou Cane Fire Dep,6166 W Main St, Houma, 7036, LA;29.603932;-90.741855;3290151.398548;-10084959.022845
14;Bayou Dularge Fire Dep,1038 Falgout Canal Rd, Theriot, 7039, LA;29.603932;-90.741855;3290151.398548;-10084959.022845
15;Bayou Gauche Volunteer Fir,1st St, Des Allemands, 7003, LA;29.810645;-90.425291;3313125.2746550003;-10049776.416449001
16;Bayou Lourse Volunteer Fir,333 Highway 663, Morgan City, 7038, LA;29.689859;-91.095236;3299701.2394009996;-10124233.433804
17;Beauregard Fire Protectio,13491 Hwy 389, De Quincy, 7063, LA;30.45048;-93.43322;3384235.89672;-10384074.63758
18;Beauregard Fire Protectio,13491 Hwy 389, Dequincy, 7063, LA;30.45048;-93.43322;3384235.89672;-10384074.63758
19;Beauregard Parish Fire Dis,354 Three Pine Church Rd, De Ridder, 7063, LA;30.911977;-93.284407;3435526.211803;-10367535.709573
20;Bel-Aire Cove Fire Dep,1638 Belaire Cove Rd, Ville Platte, 7058, LA;30.670776;-92.249411;3408719.373864;-10252507.289129
21;Berwick Town Fire Chief Of,3225 3rd St, Berwick, 7034, LA;29.69465;-91.21899;3300233.70635;-10137987.329610001
22;Bogalusa Fire Dep,200 Arkansas Ave, Bogalusa, 7042, LA;30.786566;-89.860683;3421588.158674;-9987026.447936999
23;Bonita Fire Departmen,15446 Bonita Ave, Bonita, 7122, LA;32.877348;-91.694533;3653955.579372;-10190838.703087
24;Bossier City Fire Trainin,5850 Shed Rd, Bossier City, 7111, LA;32.877348;-91.694533;3653955.579372;-10190838.703087
25;Bourg Volunteer Fire Dep,4402 Highway 24, Bourg, 7034, LA;29.563806;-90.647449;3285691.8350339998;-10074466.834410999
26;Boutte Luling Fire Dep,67 Saint Anthony St, Luling, 7007, LA;29.93462;-90.364235;3326903.73218;-10042990.713665
27;Branch Volunteer Fire Dep,173 Dr Parrot Ave, Rayne, 7057, LA;30.326259;-92.268188;3370430.099001;-10254594.146132
28;Breaux Bridge Fire Dep,225 N Main St, Breaux Bridge, 7051, LA;30.326259;-92.268188;3370430.099001;-10254594.146132
29;Bridge City Volunteer Fire C,2220 Bridge City Ave, Bridge City, 7009, LA;30.27353;-91.89928;3364569.85067;-10213594.079920001
30;Broadlands Fire Dep,620 Mayeaux Dr, De Ridder, 7063, LA;30.911977;-93.284407;3435526.211803;-10367535.709573
31;Broussard Fire Dep,416 E Railroad St, Broussard, 7051, LA;30.150227;-91.964013;3350866.078553;-10220788.440807
32;Bunkie Fire Chie,103 Walnut St, Bunkie, 7132, LA;30.95439;-92.18527;3440239.95021;-10245378.72253
33;Bush Volunteer Fire Dep,29439 Highway 40, Bush, 7043, LA;30.584401;-90.075665;3399119.742739;-10010919.332435
34;Caddo Fire Distric,8240 Colquitt Rd, Keithville, 7104, LA;32.380421;-93.843162;3598727.6095189997;-10429635.181518001
35;Cade Volunteer Fire Dep,1630 Smede Hwy, Cade, 7051, LA;30.088681;-91.906251;3344025.917659;-10214368.829889
36;Campti Fire Dep,218 Edenborne St, Campti, 7141, LA;31.870496;-93.100676;3542055.0549439997;-10347116.029964
37;Cankton Village Fire Dep,107 Dandurand Rd, Cankton, 7058, LA;31.870496;-93.100676;3542055.0549439997;-10347116.029964
38;Carencro City Fire Dep,214 E Saint Peter St, Carencro, 7052, LA;30.317705;-92.049507;3369479.415995;-10230290.158473
39;Catahoula Lake Fire Dep,Catahoula Lake Levee Rd, St Martinville, 7058, LA;30.1252;-91.83345;3348084.6028;-10206277.79955
40;Chackbay Volunteer Fire Dep,100 Highway 304, Thibodaux, 7030, LA;29.79576;-90.82287;3311470.97064;-10093962.948929999
41;Charenton-Chitimacha Voluntee,215 Choushatta Dr, Charenton, 7052, LA;29.90023;-91.513954;3323081.6619700002;-10170769.333606
42;Chataignier Fire Dep,231 Martin Luther King St, Chataignier, 7052, LA;30.56853;-92.32207;3397355.85567;-10260582.537729999
43;Collinston Fire Departmen,4444 Main St, Collinston, 7122, LA;32.688423;-91.87082;3632958.643797;-10210431.06398
44;Comm Volunteer Fire Dep,1317 Occupy Church Rd 2, Elizabeth, 7063, LA;30.911977;-93.284407;3435526.211803;-10367535.709573
45;Concordia Fire Dist ,413 Airport Rd, Vidalia, 7137, LA;31.574512;-91.474688;3509159.6891679997;-10166405.349632
46;Coteau Holmes Volunteer Fir,1860 Coteau Holmes Hwy, St Martinville, 7058, LA;30.1252;-91.83345;3348084.6028;-10206277.79955
47;Coteau Volunteer Fire Dep,4715 Highway 88, New Iberia, 7056, LA;30.053991;-91.895974;3340170.505749;-10213226.654385999
48;Cottonport Fire Dep,307 Choupique Ln, Cottonport, 7132, LA;30.984909;-92.054189;3443631.8013509996;-10230810.511271
49;Covington Fire Dep,525 N Jefferson Ave, Covington, 7043, LA;30.49915;-90.089506;3389645.03185;-10012457.607334
50;Crowley City Fire Dep,104 W Hutchinson Ave, Crowley, 7052, LA;30.324765;-92.406964;3370264.057335;-10270017.571996
51;Cut Off Volunteer Fire Dep,17462 W Main St, Cut Off, 7034, LA;29.56719;-90.371528;3286067.92941;-10043801.250392
52;De Quincy Fire Dep,300 N Holly St, De Quincy, 7063, LA;30.447913;-93.434017;3383950.602907;-10384163.215363
53;Delcambre Fire Dep,302 N Railroad St, Delcambre, 7052, LA;29.953407;-91.989337;3328991.7005729997;-10223602.924843
54;Denham Springs Fire Dep,1106 Hatchell Ln, Denham Springs, 7072, LA;30.4874;-90.95753;3388339.1486;-10108928.92667
55;Des Allemands Volunteer Fir,107 Dejean St, Des Allemands, 7003, LA;30.4874;-90.95753;3388339.1486;-10108928.92667
56;District 13 Fire Dep,18838 W La Highway 82, Abbeville, 7051, LA;29.9743;-92.13557;3331313.7277;-10239855.11423
57;District Six Fire Dep,7878 Prescott Rd, Baton Rouge, 7081, LA;30.455727;-91.184696;3384819.043053;-10134175.928744
58;Donaldsonville Fire Dep,700 Lafourche St, Donaldsonville, 7034, LA;30.107274;-90.989451;3346092.325086;-10112476.594689
59;Donner-Chacahoula Fire Dep,1801 Highway 20, Schriever, 7039, LA;29.74215;-90.81037;3305512.8088499997;-10092573.71143
60;Duson Fire Dep,1st St, Duson, 7052, LA;30.235885;-92.182553;3360386.023015;-10245076.757867
61;East St Charles Parish Fir,1901 Ormond Blvd, Destrehan, 7004, LA;29.969156;-90.371268;3330742.028684;-10043772.354252
62;Eden-Fellowship Volunteer Fir,Highway 774, Trout, 7137, LA;31.584931;-91.495393;3510317.6464090003;-10168706.482627
63;Eight Ward Volunteer Fire Dep,42382 Highway 445, Ponchatoula, 7045, LA;30.458202;-90.314195;3385094.112078;-10037429.318105
64;Elizabeth Fire Dep,230 Poplar St, Elizabeth, 7063, LA;30.458202;-90.314195;3385094.112078;-10037429.318105
65;Estherwood Fire Departmen,351 Douglas St, Estherwood, 7053, LA;30.188139;-92.459901;3355079.580321;-10275900.937239
66;Eunice Fire Dep,100 Park Ave, Eunice, 7053, LA;30.495152;-92.383845;3389200.698128;-10267448.149455
67;Ferriday Fire Dep,112 Tennessee Ave, Ferriday, 7133, LA;31.633944;-91.551479;3515764.902216;-10174939.824581001
68;Fields Fire Towe,4697 Highway 109, De Quincy, 7063, LA;30.447136;-93.435693;3383864.247904;-10384349.484327
69;Fields Fire Towe,4697 Highway 109, Dequincy, 7063, LA;30.447136;-93.435693;3383864.247904;-10384349.484327
70;Fire Chief's Offic,200 Arkansas Ave, Bogalusa, 7042, LA;30.786566;-89.860683;3421588.158674;-9987026.447936999
71;Fire Department Of Morgan Cit,1307 Victor Ii Blvd, Morgan City, 7038, LA;29.66253;-91.12144;3296663.92167;-10127145.72016
72;Fire Department Ward ,2815 Foreman Rd, Vinton, 7066, LA;30.183259;-93.608139;3354537.222001;-10403514.960321
73;Fire Department,1306 Main St, Elton, 7053, LA;30.481385;-92.686703;3387670.647515;-10301107.484717
74;Fire department,PO Box 26, Jena, 7134, LA;31.108511;-92.727329;3457368.804029;-10305622.617731
75;Fire Dep,1357 S Union St, Opelousas, 7057, LA;30.53389;-92.080846;3393506.00071;-10233773.143593999
76;Fire Dep,62438 Commercial St, Roseland, 7045, LA;30.757321;-90.510989;3418337.8986190003;-10059300.806471
77;Fire District ,1007 S Spruce St, Vivian, 7108, LA;32.871071;-93.988616;3653257.959869;-10445800.793623999
78;Fire District No 1,115 Northpark Blvd, Covington, 7043, LA;30.4411;-90.09538;3383193.4129;-10013110.43782
79;Fire Distric,110 S Main St, Springhill, 7107, LA;33.002182;-93.461247;3667829.505298;-10387189.530333
80;Fire Inspectors Offic,225 Prairie Ave, New Iberia, 7056, LA;30.00354;-91.81873;3334563.43206;-10204641.83347
81;Fire Olla Voluntee,Highway 165, Olla, 7146, LA;31.901027;-92.229599;3545448.239753;-10250305.403260998
82;Fort Polk Fire Dep,2100 LA Ave Bldg 1736, Fort Polk, 7145, LA;31.603378;-91.536622;3512367.827542;-10173288.632458
83;Franklinton Fire Dep,803 Pearl St, Franklinton, 7043, LA;30.975657;-89.95433;3442603.5433230004;-9997434.28187
84;Franklinton Volunteer Fir,41280 Highway 10, Franklinton, 7043, LA;30.854067;-90.159585;3429090.152313;-10020246.117315
85;French Settlement Voluntee,15160 La Highway 16, French Settlemnt, 7073, LA;30.283163;-90.78688;3365640.4526569997;-10089963.05632
86;Galvez Lake Fire Station ,16573 Highway 931, Prairieville, 7076, LA;30.324905;-90.853882;3370279.616795;-10097409.591598
87;Garyville Fire Dep,418 Historic West St, Garyville, 7005, LA;29.93462;-90.364235;3326903.73218;-10042990.713665
88;Geismar Fire Dep,12171 Highway 73, Geismar, 7073, LA;30.222275;-91.003849;3358873.421225;-10114076.774011001
89;Gibson East Fire Dep,116 Moss St, Gibson, 7035, LA;29.394138;-90.270125;3266835.103182;-10032531.422375
90;Gibson Fire Dep,116 Moss St, Gibson, 7035, LA;29.394138;-90.270125;3266835.103182;-10032531.422375
91;Golden Meadow Volunteer Fir,17462 W Main St, Cut Off, 7034, LA;29.56719;-90.371528;3286067.92941;-10043801.250392
92;Golden Meadow Volunteer Fir,17462 W Main St, Galliano, 7035, LA;29.56719;-90.371528;3286067.92941;-10043801.250392
93;Gonzales Fire Dep,325 E Caldwell St, Gonzales, 7073, LA;30.235809;-90.917709;3360377.576451;-10104503.260551
94;Goodbee Fire Dep,13053 Highway 190, Covington, 7043, LA;30.475434;-90.100749;3387009.2593259998;-10013707.143111
95;Goodbee Fire Distric,13027 Highway 190, Covington, 7043, LA;30.475434;-90.100749;3387009.2593259998;-10013707.143111
96;Gordon Fire Towe,4336 Edgerly Rd, De Quincy, 7063, LA;30.447136;-93.435693;3383864.247904;-10384349.484327
97;Gordon Fire Towe,4336 Edgerly Rd, Dequincy, 7063, LA;30.447136;-93.435693;3383864.247904;-10384349.484327
98;Gould Volunteer Fire C,700 Gretna Blvd, Gretna, 7005, LA;29.911243;-90.044868;3324305.635777;-10007496.584652
99;Gramercy Volunteer Fire Dep,407 River Rd, Gramercy, 7005, LA;30.076045;-90.528281;3342621.5652550003;-10061222.622059
100;Grand Caillou Volunteer Fir,4717 Grand Caillou Rd, Houma, 7036, LA;29.621931;-90.751815;3292151.789409;-10086065.967285
101;Grand Caillou Volunteer Fir,6974 Grand Caillou Rd, Dulac, 7035, LA;29.42052;-90.699389;3269767.17228;-10080239.394071
102;Grand Chenier Fire Dep,4011 Grand Chenier Hwy, Grand Chenier, 7064, LA;29.42052;-90.699389;3269767.17228;-10080239.394071
103;Grand Coteau Fire Dep,442 E Martin Luther King Dr, Sunset, 7058, LA;30.407289;-92.069705;3379435.692171;-10232534.943995
104;Greensburg Fire Dep,Highway 37, Greensburg, 7044, LA;30.821154;-90.667471;3425432.234406;-10076692.059469001
105;Greensburg Volunteer Fire Dep,13775 Highway 37, Greensburg, 7044, LA;30.821154;-90.667471;3425432.234406;-10076692.059469001
106;Gretna City Fire Dep,501 Anson St, Gretna, 7005, LA;29.909446;-90.045028;3324105.9189939997;-10007514.366892
107;Gueydan Fire Chief's Offic,414 Main St, Gueydan, 7054, LA;30.025761;-92.509352;3337033.051779;-10281396.871928
108;Hammond Fire Dep,405 S Oak St, Hammond, 7040, LA;30.502819;-90.462012;3390052.800841;-10053857.551668
109;Hammond Fire Prevention Burea,2975 E Thomas St, Hammond, 7040, LA;30.438551;-90.538781;3382910.119589;-10062389.581559
110;Henderson Nina Fire Statio,1008 Nina Hwy, Henderson, 7051, LA;30.280659;-91.907344;3365362.160601;-10214490.304816
111;Hillsdale Fire Dep,3313 Highway 1045, Amite, 7042, LA;30.729758;-90.564646;3415274.574362;-10065264.191793999
112;Hornbeck Fire Towe,168 Powell Rd, Hornbeck, 7143, LA;31.080221;-93.256116;3454224.681719;-10364391.476124
113;Houma Fire Dep,600 Wood St, Houma, 7036, LA;29.606641;-90.72659;3290452.474099;-10083262.48601
114;Husser Fire Dep,56292 Highway 445, Husser, 7044, LA;30.692929;-90.350686;3411181.436131;-10041484.891354
115;Iberia Parish Fire Protectio,2309 Avery Island Rd, New Iberia, 7056, LA;30.00354;-91.81873;3334563.43206;-10204641.83347
116;Independence Fire Dep,113 Calhoun St, Independence, 7044, LA;30.6351;-90.49816;3404754.3789000004;-10057875.00424
117;Independence Fire Station ,100 Calhoum St, Independence, 7044, LA;30.449387;-90.178334;3384114.4217930003;-10022329.862426002
118;Indian Bayou Community Fir,4723 La Highway 700, Kaplan, 7054, LA;30.449387;-90.178334;3384114.4217930003;-10022329.862426002
119;Innis Fire Dep,8874 La Highway 418, Innis, 7074, LA;30.888359;-91.669665;3432901.330901;-10188074.898435
120;Iota Fire Departmen,210 S 1st St, Iota, 7054, LA;30.332884;-92.496298;3371166.394876;-10279946.063422
121;Iota Fire Dep,116 Duson Ave, Iota, 7054, LA;30.330478;-92.493428;3370898.994442;-10279627.094492
122;Ivan Fire District ,16038 3 Highway 157, Plain Dealing, 7106, LA;32.814484;-93.628974;3646968.937276;-10405830.541386
123;Jamestown Fire Dep,PO Box 5128, Jamestown, 7104, LA;32.997543;-93.466552;3667313.931477;-10387779.122728
124;Jeanerette City Office,1437 Main St, Jeanerette, 7054, LA;29.888489;-91.613967;3321776.778971;-10181884.678413
125;Jeanerette Fire Dep,1436 Church St, Jeanerette, 7054, LA;29.910172;-91.664228;3324186.605908;-10187470.635691999
126;Jeff Davis Fire Dep,5396 Pine Island Hwy, Jennings, 7054, LA;30.221729;-92.652679;3358812.739331;-10297326.091381
127;Jena Fire Dep,Highway 84, Jena, 7134, LA;31.60603;-92.140733;3512662.56817;-10240428.924887
128;Kaplan Fire Dep,501 N Cushing Ave, Kaplan, 7054, LA;29.99839;-92.2854;3333991.06621;-10256507.0706
129;Kinder Fire Dep,808 2nd Ave, Kinder, 7064, LA;30.474399;-92.843183;3386894.230461;-10318498.515437
130;La Place Volunteer Fire Dep,521 Hemlock St, LaPlace, 7006, LA;30.061011;-90.498458;3340950.701529;-10057908.123662
131;Labadieville Volunteer Fir,2709 Highway 1, Labadieville, 7037, LA;29.835856;-90.955903;3315927.199984;-10108748.103517001
132;Lacombe Fire Dep,60267 S 8th St, Lacombe, 7044, LA;30.310897;-89.939173;3368722.7816830003;-9995749.748047
133;Lafayette Fire Chie,300 E Vermilion St, Lafayette, 7050, LA;30.230542;-92.020811;3359792.207338;-10227100.913728999
134;Lafayette Fire Communication,300 E Vermilion St, Lafayette, 7050, LA;30.231986;-92.020828;3359952.6920539998;-10227102.803092
135;Lafayette Fire Dep,300 E Vermilion St, Lafayette, 7050, LA;30.231986;-92.020828;3359952.6920539998;-10227102.803092
136;Lafayette Fire Preventio,142 Park Ave, Lafayette, 7050, LA;30.230583;-92.007809;3359796.764037;-10225655.884451
137;Lafayette Fire Training Ct,1307 Bertrand Dr, Lafayette, 7050, LA;30.230583;-92.007809;3359796.764037;-10225655.884451
138;Lafitte-Barataria Vol Fir,Highway 45 #493, Lafitte, 7006, LA;29.672922;-90.106215;3297818.878158;-10014314.628885001
139;Lafourche Crossing 308 Fir,691 Highway 308, Thibodaux, 7030, LA;29.79576;-90.82287;3311470.97064;-10093962.948929999
140;Lafourche Fire District 1 Vol,102 Saint Philip St, Raceland, 7039, LA;29.693939;-90.575492;3300154.686521;-10066469.605387999
141;Lafourche Fire Distric,N Leon Dr, Lockport, 7037, LA;29.64605;-90.53925;3294832.35095;-10062441.70575
142;Lake Cove Fire Dep,Lake Cove Community NW, Turkey Creek, 7058, LA;30.917099;-92.451831;3436095.465761;-10275004.045509
143;Larose Volunteer Fire Dep,17462 W Main St, Cut Off, 7034, LA;29.56719;-90.371528;3286067.92941;-10043801.250392
144;Larose Volunteer Fire Dep,17462 W Main St, Galliano, 7035, LA;29.45453;-90.30609;3273547.0096699996;-10036528.53651
145;Lawtell Fire Dep,Airport Rd, Opelousas, 7057, LA;30.537181;-92.083495;3393871.759159;-10234067.550805
146;Le Bleu Settlement Fire Dep,6443 Highway 3059, Lake Charles, 7061, LA;30.276018;-93.129939;3364846.364502;-10350368.290521
147;Lee Road Volunteer Fire Dep,79029 Highway 437, Covington, 7043, LA;30.484321;-90.096018;3387996.951619;-10013181.344502
148;Leesville City Fire Dep,101 W Lee St, Leesville, 7144, LA;31.222614;-93.21705;3470050.097346;-10360049.71995
149;Leleux Fire Statio,5801 Highway 13, Crowley, 7052, LA;30.22119;-92.378804;3358752.83541;-10266887.897756001
150;Leonville Volunteer Fire Dep,3726 Highway 31, Leonville, 7055, LA;30.465988;-91.951062;3385959.440332;-10219349.079618
151;Little Caillou Fire Dep,4588 Highway 56, Chauvin, 7034, LA;29.533904;-90.610511;3282368.5566559997;-10070361.582029
152;Little Chapel Volunteer Fir,13007 La Highway 3093, Kaplan, 7054, LA;30.042855;-92.183265;3338932.8618449997;-10245155.888835
153;Livingston Parish Fire Prtct,29778 S Montpelier Rd, Albany, 7071, LA;30.49934;-90.582669;3389666.14826;-10067267.249991
154;Livonia Fire Dep,3496 La Highway 78, Livonia, 7075, LA;30.55908;-91.55594;3396305.59212;-10175435.61566
155;Lockport Volunteer Fire Dep,806 Crescent Ave, Lockport, 7037, LA;29.64605;-90.53925;3294832.35095;-10062441.70575
156;Loranger Volunteer Fire Dep,20032 Firehouse Rd, Loranger, 7044, LA;30.631361;-90.40759;3404338.830179;-10047809.14501
157;Loreauville Volunteer Fir,119 Bridge, Loreauville, 7055, LA;30.008963;-91.737329;3335166.138857;-10195595.007731
158;Lowery Fire Statio,460 Lowry Hwy, Lake Arthur, 7054, LA;30.08076;-92.67153;3343145.58564;-10299421.172670001
159;Luling Volunteer Fire Dep,67 Saint Anthony St, Luling, 7007, LA;29.93462;-90.364235;3326903.73218;-10042990.713665
160;Lydia Volunteer Fire Dep,7209 Weeks Island Rd, New Iberia, 7056, LA;30.00354;-91.81873;3334563.43206;-10204641.83347
161;Lyons Point Fire Departmen,2014 S La Hwy 13, Crowley, 7052, LA;30.212297;-92.3632;3357764.476283;-10265153.6848
162;Madisonville Fire Dep,402 Cedar St, Madisonville, 7044, LA;30.406279;-90.159109;3379323.4417810002;-10020193.215151
163;Mamou Fire Dep,121 Main St, Mamou, 7055, LA;30.630097;-92.423073;3404198.350483;-10271807.910147
164;Mandeville Fire Dep,3101 E Causeway Approach, Mandeville, 7044, LA;30.381477;-90.099643;3376566.972303;-10013584.223377
165;Mansura Fire Dep,1832 Leglise St, Mansura, 7135, LA;31.068576;-92.050786;3452930.468064;-10230432.305254001
166;Maringouin Fire Dep,10660 2nd St, Maringouin, 7075, LA;30.527159;-91.525086;3392757.924101;-10172006.532954
167;Marion Fire Dep,398 Main St, Marion, 7126, LA;32.905889;-92.231759;3657127.597571;-10250545.463500999
168;Marlow Volunteer Fire Dep,118 Marlow Rd, Pitkin, 7065, LA;30.961192;-93.112287;3440995.917688;-10348406.464893
169;Marrero-Harvey Volunteer Fir,531 Avenue C, Marrero, 7007, LA;29.898819;-90.104751;3322924.844841;-10014151.921388999
170;Maurepas Fire Dep,24564 Highway 22, Maurepas, 7044, LA;30.261359;-90.633179;3363217.177901;-10072880.880881
171;Maurice Volunteer Fire Dep,510 Chief H Fred Ave, Maurice, 7055, LA;30.103157;-92.127224;3345634.765823;-10238927.548136
172;Meaux Nunez Volunteer Fir,9124 Romules Rd, Abbeville, 7051, LA;29.962049;-92.136138;3329952.163811;-10239918.241182
173;Mire Volunteer Fire Dep,5248 Mire Hwy, Duson, 7052, LA;30.237218;-92.026144;3360534.171302;-10227693.618016
174;Montegut Fire Dept District ,1105 Highway 55, Montegut, 7037, LA;30.237218;-92.026144;3360534.171302;-10227693.618016
175;Montegut Fire Dep,632 Highway 665, Montegut, 7037, LA;29.476982;-90.552833;3276042.3024979997;-10063951.306787001
176;Montegut-Point-Aux-Chenes Fir,1105 Highway 55, Montegut, 7037, LA;29.476982;-90.552833;3276042.3024979997;-10063951.306787001
177;Moreauville Fire Dep,328 Main St, Moreauville, 7135, LA;31.034649;-91.976379;3449159.855211;-10222162.785681
178;Morgan City Fire Chief's Of,1307 Victor Ii Blvd, Morgan City, 7038, LA;29.66253;-91.12144;3296663.92167;-10127145.72016
179;Morgan City Fire Dep,1307 Victor Ii Blvd, Morgan City, 7038, LA;29.66253;-91.12144;3296663.92167;-10127145.72016
180;Municipal Training Academ,401 City Park Ave, New Orleans, 7011, LA;29.934704;-90.213447;3326913.067856;-10026232.286133
181;Natalbany Volunteer Fire Dep,15146 Fire Station Rd, Natalbany, 7045, LA;30.544702;-90.491419;3394707.635578;-10057125.816241
182;New Iberia Fire Dep,225 Prairie Ave, New Iberia, 7056, LA;30.544702;-90.491419;3394707.635578;-10057125.816241
183;New Orleans Fire Dep,1700 Moss St, New Orleans, 7011, LA;30.00354;-91.81873;3334563.43206;-10204641.83347
184;New Orleans Fire Dep,317 Decatur St, New Orleans, 7013, LA;29.95465;-90.07507;3329129.8463500002;-10010853.20473
185;New Orleans Fire Dep,701 Rosedale Dr, New Orleans, 7012, LA;29.963724;-90.072166;3330138.3216359997;-10010530.457074
186;New Orleans Fire Training Aca,13400 Old Gentilly Rd, New Orleans, 7012, LA;29.963724;-90.072166;3330138.3216359997;-10010530.457074
187;Nine Mile Point Volunteer Fir,1024 Oak Ave, Bridge City, 7009, LA;29.947782;-90.151809;3328366.543698;-10019381.900451
188;Norco Area Volunteer Fire Dep,River Rd, LaPlace, 7006, LA;30.076045;-90.528281;3342621.5652550003;-10061222.622059
189;Oak Grove Fire Dep,1523 Oak Grove Hwy, Creole, 7063, LA;29.786002;-93.113511;3310386.476278;-10348542.499029
190;Oak Grove Fire Statio,589 Stanford Rd, Oak Grove, 7126, LA;32.889722;-91.358286;3655330.813358;-10153468.547754
191;Oak Hill Fire Dep,PO Box 593, Glenmora, 7143, LA;31.106942;-92.713031;3457194.426938;-10304033.552309
192;Oak Park Fire Statio,52 Oak Park Dr, Madisonville, 7044, LA;30.433406;-90.208954;3382338.309434;-10025732.938606001
193;Oakdale Fire Dep,115 N 10th St, Oakdale, 7146, LA;30.807665;-92.645739;3423933.080435;-10296554.786721
194;Olla Fire Dep,US Highway 165, Olla, 7146, LA;31.901027;-92.229599;3545448.239753;-10250305.403260998
195;Opelousas Fire Chie,1357 S Union St, Opelousas, 7057, LA;30.485177;-92.101952;3388092.086603;-10236118.843328
196;Paincourtville Volenteer Fir,6074 Highway 1, Paincourtville, 7039, LA;29.992459;-91.055045;3333331.900801;-10119766.646255001
197;Parks Fire Dept-Offic,Bridge, St Martinville, 7058, LA;30.1252;-91.83345;3348084.6028;-10206277.79955
198;Patterson City Fire Meeting R,1306 Main St, Patterson, 7039, LA;29.680508;-91.294553;3298661.978612;-10146385.325867
199;Patterson Fire Dep,1308 Main St, Patterson, 7039, LA;29.680508;-91.294553;3298661.978612;-10146385.325867
200;Pearl River Fire Dep,37546 Pine Street Ext, Pearl River, 7045, LA;30.37535;-89.767961;3375886.0236500003;-9976721.417579
201;Pecan Island Fire Dep,25600 W La Highway 82, Kaplan, 7054, LA;29.937614;-92.309;3327236.482346;-10259129.951
202;Pierre Part Volunteer Fir,101 S Bay Rd, Pierre Part, 7033, LA;29.9652;-91.20316;3330302.3628;-10136227.99924
203;Pine Prairie Area Fire Dep,Edwin Elliott Dr, Pine Prairie, 7057, LA;30.776586;-92.422522;3420478.991454;-10271746.672558
204;Pine Prairie Fire Dep,Highway 13, Pine Prairie, 7057, LA;30.783011;-92.428046;3421193.059529;-10272360.604394
205;Pine Ridge Fire Dep,354 Three Pine Church Rd, De Ridder, 7063, LA;30.911977;-93.284407;3435526.211803;-10367535.709573
206;Pineville Fire Chie,35 Purser St, Pineville, 7136, LA;31.331576;-92.419966;3482160.025064;-10271462.601274
207;Pineville Fire Dep,35 Purser St, Pineville, 7136, LA;31.331576;-92.419966;3482160.025064;-10271462.601274
208;Pitkin Volunteer Fire Dep,12778 Highway 10, Pitkin, 7065, LA;30.939647;-92.831616;3438601.427933;-10317212.970624
209;Plain Dealing Fire Dep,205 W Palmetto Ave, Plain Dealing, 7106, LA;32.919215;-93.689292;3658608.635885;-10412534.223588
210;Plainview Community Voluntee,172 Highway 112, Elizabeth, 7063, LA;30.899684;-92.789679;3434159.980076;-10312552.134381
211;Plainview Fire Dep,10941 Highway 112, Elizabeth, 7063, LA;30.899684;-92.789679;3434159.980076;-10312552.134381
212;Plainview Volunteer Fire Dep,10016 Highway 112, Glenmora, 7143, LA;31.105138;-92.636457;3456993.932182;-10295523.194523
213;Plaquemine Fire Dep,58165 Meriam St, Plaquemine, 7076, LA;30.290675;-91.233758;3366475.328825;-10139628.630362
214;Pointe Aux Chenes Fire Dep,1105 Highway 55, Montegut, 7037, LA;29.501096;-90.547575;3278722.308344;-10063366.937925
215;Pointe Coupee Fire Distric,8874 La Highway 418, Innis, 7074, LA;30.888359;-91.669665;3432901.330901;-10188074.898435
216;Ponchatoula Fire Dep,201 NW Railroad Ave, Ponchatoula, 7045, LA;30.438758;-90.441471;3382933.125362;-10051574.645469
217;Port Barre Fire Dep,514 Saizan St, Port Barre, 7057, LA;30.5602;-91.95401;3396430.0678;-10219676.717389999
218;Port Sulphur Fire Dep,123 Civic Dr, Port Sulphur, 7008, LA;29.48049;-89.69395;3276432.1781099997;-9968495.90905
219;Port Sulphur Vol Fire Dep,123 Civic Dr, Port Sulphur, 7008, LA;29.48049;-89.69395;3276432.1781099997;-9968495.90905
220;Prairie Volunteer Fire Dep,7209 Highway 93, Sunset, 7058, LA;30.41131;-92.06845;3379882.58209;-10232395.46455
221;Prairieville Fire Dep,17183 Highway 929, Prairieville, 7076, LA;30.298527;-90.960233;3367347.992253;-10109229.335387
222;R C Milling Memorial Fire St,75174 Highway 1083, Covington, 7043, LA;30.45886;-90.156595;3385167.2415400003;-10019913.811704999
223;Rayne City O,101 3rd St, Rayne, 7057, LA;30.209507;-92.270885;3357454.3984729997;-10254893.888015
224;Reserve Central Statio,105 Firehouse Ln, Reserve, 7008, LA;30.053549;-90.551574;3340121.382311;-10063811.382786
225;Roanoke Jefferson Davis Fir,201 W South St, Welsh, 7059, LA;30.241414;-92.823631;3361000.5105459997;-10316325.525709001
226;Rocky Branch Crossroad Vf,11291 Highway 143, Farmerville, 7124, LA;32.714978;-92.218541;3635909.9399420004;-10249076.428199
227;Rosedale Fire Dep,Highway 77, Rosedale, 7077, LA;30.458794;-91.478917;3385159.906366;-10166875.356463
228;Rynella-Abbeville Hwy Fire De,5105 Avery Island Rd, New Iberia, 7056, LA;29.987963;-91.758563;3332832.2198570003;-10197954.933256999
229;Schriever Volunteer Fire Dep,1529 W Park Ave, Schriever, 7039, LA;29.74215;-90.81037;3305512.8088499997;-10092573.71143
230;Seventh District Fire Dep,13398 Roddy Rd, Gonzales, 7073, LA;30.234111;-90.903938;3360188.862429;-10102972.765382
231;Shreveport Fire Chie,801 Crockett St, Shreveport, 7110, LA;32.511196;-93.748038;3613261.812244;-10419063.195282
232;Shreveport Fire Departmen,801 Crockett St, Shreveport, 7110, LA;32.511196;-93.748038;3613261.812244;-10419063.195282
233;Sibley Fire Dep,117 SE 4th Ave, Sibley, 7107, LA;32.511196;-93.748038;3613261.812244;-10419063.195282
234;Simmesport Fire Dep,388 Mission Dr, Simmesport, 7136, LA;30.987439;-91.814239;3443912.983021;-10204142.708221
235;Singer Volunteer Fire Dep,9080 Highway 27, Singer, 7066, LA;30.71556;-93.39032;3413696.62284;-10379306.77448
236;Sorrento Fire Dep,8096 Main St, Sorrento, 7077, LA;30.18436;-90.85926;3354659.58604;-10098007.29714
237;Southeast La Search & Rescu,510 E Boston St, Covington, 7043, LA;30.475744;-90.09434;3387043.7124159997;-10012994.853260001
238;Spearsville Fire Dep,2456 Highway 3121, Spearsville, 7127, LA;32.999679;-92.598889;3667551.324381;-10291347.924571
239;Spencer-West Sterlington Fir,Highway 143, Spencer, 7128, LA;32.742722;-92.131823;3638993.3803580003;-10239438.676397
240;Spring Creek Community Vf,757 Highway 113, Glenmora, 7143, LA;30.992594;-92.598;3444485.904566;-10291249.122
241;St Amant Fire Dep,PO Box 45, St Amant, 7077, LA;30.22464;-90.86899;3359136.2649600003;-10099088.679609999
242;St John Volunteer Fire Dep,2072 Highway 1, Thibodaux, 7030, LA;29.79576;-90.82287;3311470.97064;-10093962.948929999
243;St John Westside Voluntee,173 E 3rd St, Edgard, 7004, LA;30.026242;-90.601897;3337086.509638;-10069404.230682999
244;St John's Volunteer Fire Dep,Tiger Dr, Thibodaux, 7030, LA;29.79576;-90.82287;3311470.97064;-10093962.948929999
245;St Landry Parish Fire Distric,887 Highway 749, Opelousas, 7057, LA;30.533728;-92.08818;3393487.996192;-10234588.237019999
246;St Martinville Fire Dep,230 Washington St, St Martinville, 7058, LA;30.533728;-92.08818;3393487.996192;-10234588.237019999
247;Sun Tenth Dist Volunteer Fir,28666 Highway 16, Sun, 7046, LA;30.1252;-91.83345;3348084.6028;-10206277.79955
248;Sunset City Fire Dep,872 Napoleon Ave, Sunset, 7058, LA;30.409181;-92.071713;3379645.967159;-10232758.111107001
249;Thibodaux Fire Dep,800 Parish Rd, Thibodaux, 7030, LA;29.79576;-90.82287;3311470.97064;-10093962.948929999
250;Three Pine Fire Dep,354 Three Pine Church Rd, De Ridder, 7063, LA;30.911977;-93.284407;3435526.211803;-10367535.709573
251;Tullos Fire Dep,125 Main St, Tullos, 7147, LA;31.830948;-92.332616;3537659.729772;-10261754.609624
252;Tullos Volunteer Fire Dep,10187 S Main St, Tullos, 7147, LA;31.830948;-92.332616;3537659.729772;-10261754.609624
253;Turkey Creek Fire Dep,1084 Cedar Ln, Ville Platte, 7058, LA;30.674564;-92.359876;3409140.368396;-10264784.258764
254;Union Volunteer Fire Dep,9793 La 44, Convent, 7072, LA;30.028769;-90.708311;3337367.357891;-10081230.976228999
255;Urania Fire Dep,100 E Hardtner Dr, Urania, 7148, LA;31.860891;-92.291212;3540987.564849;-10257153.010468
256;Vacherie Fire Dep,2433 Highway 18, Vacherie, 7009, LA;30.006515;-90.709746;3334894.070585;-10081390.460694
257;Vacherie Gheens Volunteer Fir,N Leon Dr, Lockport, 7037, LA;29.64605;-90.53925;3294832.35095;-10062441.70575
258;Village East Fire C,Industrial Park & Indstrl Rd, Houma, 7036, LA;29.595275;-90.668461;3289189.2682250002;-10076802.087079
259;Ville Platte Fire Dep,310 W Magnolia St, Ville Platte, 7058, LA;30.68797;-92.27152;3410630.29783;-10254964.46128
260;Vinton Fire Volunteer,1201 Horridge St, Vinton, 7066, LA;30.196358;-93.581361;3355993.031762;-10400538.880179001
261;Ward 2 Fire Protection Dist ,Galley Rd, Hayes, 7064, LA;30.219807;-93.331752;3358599.130173;-10372797.585528
262;Ward 2 Fire Protection Dis,9890 Highway 34, Eros, 7123, LA;32.416219;-92.36962;3602706.1634409996;-10265867.19718
263;Ward 4 Fire Dep,261 Highway 505, Jonesboro, 7125, LA;32.24033;-92.60843;3583158.03587;-10292408.30177
264;Ward 5 Fire Protection Dis,Courthouse, Turkey Creek, 7058, LA;30.001372;-92.282986;3334322.482708;-10256238.781054
265;Ward 8 Fire Protection Dis,4444 Main St, Collinston, 7122, LA;32.627732;-91.878502;3626213.506748;-10211284.833778
266;Washington Parish Fire Dis,30247 Highway 430, Franklinton, 7043, LA;30.869258;-90.156472;3430778.4648619997;-10019900.141608
267;Washington Parish Fire Protec,43139 C E Stafford Rd, Franklinton, 7043, LA;30.844287;-90.155793;3428003.2128930003;-10019824.678227
268;Welsh Fire Dep,201 W South St, Welsh, 7059, LA;30.238843;-92.823621;3360714.772177;-10316324.414319001
269;Westwego City Fire Chief',677 Avenue H, Westwego, 7009, LA;29.936422;-90.166617;3327104.004658;-10021027.646763
270;Westwego Fire Dep,677 Avenue H, Westwego, 7009, LA;29.936422;-90.166617;3327104.004658;-10021027.646763
271;Wilmer Fire Dep,22115 Highway 10, Kentwood, 7044, LA;30.796467;-90.443893;3422688.545913;-10051843.824127
272;Wkb Volunteer Fire Dep,4040 Highway 90 W, Avondale, 7009, LA;29.929516;-90.165183;3326336.478724;-10020868.273437
273;Woodlawn Fire Dep,7163 Highway 39 #202, Braithwaite, 7004, ;29.859438;-89.916358;3318548.079882;-9993214.111762
